NORAD_CAT_ID,OBJECT_NAME,OBJECT_TYPE,EPOCH,MEAN_MOTION,ECCENTRICITY,INCLINATION,RA_OF_ASC_NODE,ARG_OF_PERICENTER,MEAN_ANOMALY,BSTAR,MEAN_MOTION_DOT,MEAN_MOTION_DDOT,TLE_LINE0,TLE_LINE1,TLE_LINE2,SEMIMAJOR_AXIS,PERIOD,APOGEE,PERIGEE,DECAYED
55313.0,STARLINK-5313,PAYLOAD,2024-07-07 20:26:54,14.98327757,0.0002805,70.0,102.1078,270.1236,89.9602,9.4463e-05,1.034e-05,0.0,0 STARLINK-5313,1 55313U 23010AW  24189.85201527  .00001034  00000-0  94463-4 0  9995,2 55313  70.0000 102.1078 0002805 270.1236  89.9602 14.98327757 82109,6950.2,96.107,574.014,570.115,0.0
55313.0,STARLINK-5313,PAYLOAD,2024-07-08 10:52:06,14.98330373,0.0002769,70.0002,100.5929,270.204,89.8802,6.0451e-05,6.28e-06,0.0,0 STARLINK-5313,1 55313U 23010AW  24190.45285375  .00000628  00000-0  60451-4 0  9994,2 55313  70.0002 100.5929 0002769 270.2040  89.8802 14.98330373 83381,6950.192,96.107,573.981,570.132,0.0
55313.0,STARLINK-5313,PAYLOAD,2024-07-08 20:28:54,14.98331882,0.0002685,70.0004,99.5831,271.8382,88.2469,2.878e-05,2.5e-06,0.0,0 STARLINK-5313,1 55313U 23010AW  24190.85341354  .00000250  00000-0  28780-4 0  9998,2 55313  70.0004  99.5831 0002685 271.8382  88.2469 14.98331882 82258,6950.187,96.107,573.918,570.186,0.0
55313.0,STARLINK-5313,PAYLOAD,2024-07-08 22:05:03,14.98331026,0.0002702,70.0005,99.4148,271.7146,88.3703,2.08e-05,1.55e-06,0.0,0 STARLINK-5313,1 55313U 23010AW  24190.92017416  .00000155  00000-0  20800-4 0  9994,2 55313  70.0005  99.4148 0002702 271.7146  88.3703 14.98331026 83451,6950.19,96.107,573.933,570.177,0.0
55313.0,STARLINK-5313,PAYLOAD,2024-07-09 10:54:07,14.98330798,0.0002703,70.0005,98.068,273.1023,86.9826,-2.0753e-05,-3.41e-06,0.0,0 STARLINK-5313,1 55313U 23010AW  24191.45425432 -.00000341  00000-0 -20753-4 0  9990,2 55313  70.0005  98.0680 0002703 273.1023  86.9826 14.98330798 83532,6950.19,96.107,573.934,570.177,0.0
55313.0,STARLINK-5313,PAYLOAD,2024-07-09 20:30:56,14.98326016,0.0002613,70.0006,97.0586,268.9007,91.1853,-3.8276e-05,-5.5e-06,0.0,0 STARLINK-5313,1 55313U 23010AW  24191.85481749 -.00000550  00000-0 -38276-4 0  9998,2 55313  70.0006  97.0586 0002613 268.9007  91.1853 14.98326016 82402,6950.205,96.107,573.886,570.254,0.0
55313.0,STARLINK-5313,PAYLOAD,2024-07-09 22:07:04,14.9830805,0.000259,70.0007,96.8903,266.9066,93.1797,0.00025969,3.005e-05,0.0,0 STARLINK-5313,1 55313U 23010AW  24191.92157980  .00003005  00000-0  25969-3 0  9993,2 55313  70.0007  96.8903 0002590 266.9066  93.1797 14.98308050 83600,6950.261,96.108,573.926,570.326,0.0
55313.0,STARLINK-5313,PAYLOAD,2024-07-10 10:56:08,14.98330439,0.0002657,70.0007,95.5436,270.4689,89.6166,-4.9105e-05,-6.79e-06,0.0,0 STARLINK-5313,1 55313U 23010AW  24192.45565559 -.00000679  00000-0 -49105-4 0  9992,2 55313  70.0007  95.5436 0002657 270.4689  89.6166 14.98330439 83686,6950.192,96.107,573.903,570.21,0.0
55313.0,STARLINK-5313,PAYLOAD,2024-07-10 20:32:56,14.98331019,0.0002705,70.0006,94.5339,269.9568,90.1281,1.0157e-05,2.8e-07,0.0,0 STARLINK-5313,1 55313U 23010AW  24192.85621338  .00000028  00000-0  10157-4 0  9995,2 55313  70.0006  94.5339 0002705 269.9568  90.1281 14.98331019 82554,6950.19,96.107,573.935,570.175,0.0
55313.0,STARLINK-5313,PAYLOAD,2024-07-10 22:09:04,14.98330584,0.0002708,70.0007,94.3656,269.9476,90.1373,6.031e-06,-2.1e-07,0.0,0 STARLINK-5313,1 55313U 23010AW  24192.92297377 -.00000021  00000-0  60310-5 0  9996,2 55313  70.0007  94.3656 0002708 269.9476  90.1373 14.98330584 83757,6950.191,96.107,573.938,570.174,0.0
55313.0,STARLINK-5313,PAYLOAD,2024-07-11 02:57:28,14.98332667,0.0002723,70.0006,93.8604,270.7414,89.3433,2.3276e-05,1.85e-06,0.0,0 STARLINK-5313,1 55313U 23010AW  24193.12325176  .00000185  00000-0  23276-4 0  9997,2 55313  70.0006  93.8604 0002723 270.7414  89.3433 14.98332667 83786,6950.185,96.107,573.942,570.157,0.0
55313.0,STARLINK-5313,PAYLOAD,2024-07-12 02:59:29,14.98317931,0.0002878,70.0003,91.3352,268.3838,91.6991,-0.00011869,-1.508e-05,0.0,0 STARLINK-5313,1 55313U 23010AW  24194.12465181 -.00001508  00000-0 -11869-3 0  9995,2 55313  70.0003  91.3352 0002878 268.3838  91.6991 14.98317931 82747,6950.23,96.108,574.095,570.095,0.0
55313.0,STARLINK-5313,PAYLOAD,2024-07-12 11:00:10,14.98319567,0.0002873,70.0003,90.4927,269.8675,90.2154,-0.00013115,-1.657e-05,0.0,0 STARLINK-5313,1 55313U 23010AW  24194.45845276 -.00001657  00000-0 -13115-3 0  9999,2 55313  70.0003  90.4927 0002873 269.8675  90.2154 14.98319567 83985,6950.225,96.108,574.087,570.093,0.0
55313.0,STARLINK-5313,PAYLOAD,2024-07-12 22:13:06,14.98320896,0.000303,70.0001,89.3155,271.0532,89.028,-0.00012562,-1.591e-05,0.0,0 STARLINK-5313,1 55313U 23010AW  24194.92577335 -.00001591  00000-0 -12562-3 0  9991,2 55313  70.0001  89.3155 0003030 271.0532  89.0280 14.98320896 84058,6950.221,96.108,574.192,569.98,0.0
55313.0,STARLINK-5313,PAYLOAD,2024-07-13 03:01:30,14.98327734,0.0002919,70.0002,88.8103,269.857,90.2254,-0.00010642,-1.362e-05,0.0,0 STARLINK-5313,1 55313U 23010AW  24195.12604899 -.00001362  00000-0 -10642-3 0  9993,2 55313  70.0002  88.8103 0002919 269.8570  90.2254 14.98327734 82891,6950.2,96.107,574.094,570.036,0.0
55313.0,STARLINK-5313,PAYLOAD,2024-07-13 22:15:07,14.983174,0.0002919,70.0002,86.7905,272.4845,87.598,0.00014641,1.654e-05,0.0,0 STARLINK-5313,1 55313U 23010AW  24195.92716663  .00001654  00000-0  14641-3 0  9999,2 55313  70.0002  86.7905 0002919 272.4845  87.5980 14.98317400 84204,6950.232,96.108,574.126,570.068,0.0
55313.0,STARLINK-5313,PAYLOAD,2024-07-14 03:03:31,14.98323394,0.0002891,70.0002,86.2854,272.4034,87.6794,0.00020491,2.352e-05,0.0,0 STARLINK-5313,1 55313U 23010AW  24196.12744263  .00002352  00000-0  20491-3 0  9995,2 55313  70.0002  86.2854 0002891 272.4034  87.6794 14.98323394 83045,6950.213,96.107,574.088,570.069,0.0
55313.0,STARLINK-5313,PAYLOAD,2024-07-14 09:28:03,14.9832052,0.000284,70.0003,85.6121,273.0479,87.0355,0.00012936,1.45e-05,0.0,0 STARLINK-5313,1 55313U 23010AW  24196.39448810  .00001450  00000-0  12936-3 0  9996,2 55313  70.0003  85.6121 0002840 273.0479  87.0355 14.98320520 84271,6950.222,96.108,574.061,570.113,0.0
55313.0,STARLINK-5313,PAYLOAD,2024-07-14 22:17:08,14.98324271,0.0002833,70.0003,84.2657,272.686,87.3975,0.00010469,1.156e-05,0.0,0 STARLINK-5313,1 55313U 23010AW  24196.92856907  .00001156  00000-0  10469-3 0  9997,2 55313  70.0003  84.2657 0002833 272.6860  87.3975 14.98324271 84358,6950.211,96.107,574.045,570.107,0.0
55313.0,STARLINK-5313,PAYLOAD,2024-07-15 09:30:04,14.98328104,0.0002809,70.0004,83.0875,272.0519,88.0319,7.8154e-05,8.4e-06,0.0,0 STARLINK-5313,1 55313U 23010AW  24197.39588805  .00000840  00000-0  78154-4 0  9993,2 55313  70.0004  83.0875 0002809 272.0519  88.0319 14.98328104 83231,6950.199,96.107,574.016,570.111,0.0
55313.0,STARLINK-5313,PAYLOAD,2024-07-15 22:19:09,14.98328922,0.000275,70.0006,81.7418,265.2481,94.8364,-1.0991e-05,-2.24e-06,0.0,0 STARLINK-5313,1 55313U 23010AW  24197.92997029 -.00000224  00000-0 -10991-4 0  9997,2 55313  70.0006  81.7418 0002750 265.2481  94.8364 14.98328922 84502,6950.196,96.107,573.973,570.15,0.0
55313.0,STARLINK-5313,PAYLOAD,2024-07-16 03:07:33,14.98331777,0.0002752,70.0006,81.2368,264.9032,95.1813,1.9869e-05,1.44e-06,0.0,0 STARLINK-5313,1 55313U 23010AW  24198.13024773  .00000144  00000-0  19869-4 0  9990,2 55313  70.0006  81.2368 0002752 264.9032  95.1813 14.98331777 84539,6950.187,96.107,573.965,570.14,0.0
55313.0,STARLINK-5313,PAYLOAD,2024-07-16 20:45:02,14.98332282,0.0002693,70.0008,79.3851,263.0885,96.9968,2.1318e-05,1.61e-06,0.0,0 STARLINK-5313,1 55313U 23010AW  24198.86460662  .00000161  00000-0  21318-4 0  9992,2 55313  70.0008  79.3851 0002693 263.0885  96.9968 14.98332282 83458,6950.186,96.107,573.923,570.179,0.0
55313.0,STARLINK-5313,PAYLOAD,2024-07-16 22:21:10,14.98331542,0.0002698,70.0007,79.2166,262.654,97.4312,1.2359e-05,5.5e-07,0.0,0 STARLINK-5313,1 55313U 23010AW  24198.93136724  .00000055  00000-0  12359-4 0  9996,2 55313  70.0007  79.2166 0002698 262.6540  97.4312 14.98331542 84653,6950.188,96.107,573.928,570.178,0.0
55313.0,STARLINK-5313,PAYLOAD,2024-07-17 09:34:06,14.98331681,0.0002785,70.0005,78.0353,272.3889,87.6951,-1.5808e-05,-2.82e-06,0.0,0 STARLINK-5313,1 55313U 23010AW  24199.39868712 -.00000282  00000-0 -15808-4 0  9992,2 55313  70.0005  78.0353 0002785 272.3889  87.6951 14.98331681 84729,6950.188,96.107,573.988,570.117,0.0
55313.0,STARLINK-5313,PAYLOAD,2024-07-17 20:47:03,14.98322768,0.0002792,70.0004,76.8582,271.2325,88.8514,-7.2677e-06,-1.8e-06,0.0,0 STARLINK-5313,1 55313U 23010AW  24199.86601354 -.00000180  00000-0 -72677-5 0  9996,2 55313  70.0004  76.8582 0002792 271.2325  88.8514 14.98322768 83609,6950.215,96.107,574.021,570.14,0.0
55313.0,STARLINK-5313,PAYLOAD,2024-07-17 22:23:11,14.98319768,0.0002656,70.0004,76.6895,265.9127,94.1728,7.1284e-07,-8.4e-07,0.0,0 STARLINK-5313,1 55313U 23010AW  24199.93277544 -.00000084  00000-0  71284-6 0  9990,2 55313  70.0004  76.6895 0002656 265.9127  94.1728 14.98319768 84809,6950.225,96.108,573.936,570.244,0.0
55313.0,STARLINK-5313,PAYLOAD,2024-07-18 09:36:07,14.98328476,0.0002868,70.0002,75.5124,271.2777,88.8053,-5.0854e-05,-7e-06,0.0,0 STARLINK-5313,1 55313U 23010AW  24200.40009241 -.00000700  00000-0 -50854-4 0  9996,2 55313  70.0002  75.5124 0002868 271.2777  88.8053 14.98328476 84870,6950.198,96.107,574.056,570.069,0.0
55313.0,STARLINK-5313,PAYLOAD,2024-07-18 20:49:04,14.98325799,0.0002957,70.0005,74.3344,272.332,87.7501,6.3708e-06,-1.7e-07,0.0,0 STARLINK-5313,1 55313U 23010AW  24200.86741359 -.00000017  00000-0  63708-5 0  9992,2 55313  70.0005  74.3344 0002957 272.3320  87.7501 14.98325799 83756,6950.206,96.107,574.126,570.016,0.0
55313.0,STARLINK-5313,PAYLOAD,2024-07-18 22:25:12,14.98330097,0.0002757,70.0003,74.1659,265.464,94.6204,-3.024e-05,-4.54e-06,0.0,0 STARLINK-5313,1 55313U 23010AW  24200.93417199 -.00000454  00000-0 -30240-4 0  9992,2 55313  70.0003  74.1659 0002757 265.4640  94.6204 14.98330097 84954,6950.193,96.107,573.974,570.141,0.0
